GLOBALSTAR M084         
1 38040U 11080A   24272.51474091 -.00000084  00000+0  11255-3 0  9992
2 38040  51.9988 125.1011 0000733 102.0675 264.8023 12.62267930589625
GLOBALSTAR M080         
1 38041U 11080B   24272.90529229 -.00000073  00000+0  16956-3 0  9991
2 38041  52.0044 125.4279 0000987 106.8044 355.4583 12.62266187589938
GLOBALSTAR M082         
1 38042U 11080C   24272.74092613 -.00000088  00000+0  85430-4 0  9996
2 38042  52.0066  81.3439 0000782  54.2157 320.9274 12.62267081590654
GLOBALSTAR M092         
1 38043U 11080D   24272.51117806 -.00000097  00000+0  39869-4 0  9999
2 38043  52.0078 172.4083 0000546  71.2241  99.5295 12.62266562588906
GLOBALSTAR M090         
1 38044U 11080E   24272.37386229 -.00000090  00000+0  75691-4 0  9997
2 38044  51.9881  76.6065 0000805  73.8350 312.5990 12.62268080590550
GLOBALSTAR M086         
1 38045U 11080F   24272.71395144 -.00000087  00000+0  94419-4 0  9997
2 38045  51.9891  76.1008 0001738  96.4846 276.7557 12.62267532590642
GLOBALSTAR M097         
1 39072U 13005A   24272.65867723 -.00000090  00000+0  75500-4 0  9991
2 39072  52.0073 350.5559 0000756  85.3136 274.7817 12.62270580537864
GLOBALSTAR M093         
1 39073U 13005B   24272.39427100 -.00000079  00000+0  13990-3 0  9995
2 39073  51.9835 345.0800 0000734  81.6886 278.4063 12.62264586537700
